{"type": "FeatureCollection", "features": [ {"type": "Feature", "properties": {"norad_id": 28659, "name": "DIRECTV 8", "group": "intelsat", "lat": -0.030819507220338677, "lon": -81.01825546938173, "alt_km": 35773.87754534815, "timestamp": "2025-12-04T21:36:15.541992+00:00", "meta": {"OBJECT_NAME": "DIRECTV 8", "OBJECT_ID": "2005-019A", "EPOCH": "2025-12-04T09:44:09.105216", "MEAN_MOTION": 1.00271046, "ECCENTRICITY": 0.00032663, "INCLINATION": 0.0176, "RA_OF_ASC_NODE": 322.8972, "ARG_OF_PERICENTER": 289.5965, "MEAN_ANOMALY": 207.9778, "EPHEMERIS_TYPE": 0, "CLASSIFICATION_TYPE": "U", "NORAD_CAT_ID": 28659, "ELEMENT_SET_NO": 999, "REV_AT_EPOCH": 7512, "BSTAR": 0, "MEAN_MOTION_DOT": 1.6e-07, "MEAN_MOTION_DDOT": 0}, "tle": {"line1": "1 28659U 05019A   25338.40566094  .00000016  00000+0  00000+0 0  9995", "line2": "2 28659   0.0176 322.8972 0003266 289.5965 207.9778  1.00271046 75126"}}, "geometry": {"type": "Point", "coordinates": [-81.01825546938173, -0.030819507220338677]}}, {"type": "Feature", "properties": {"norad_id": 28702, "name": "GALAXY 28 (G-28)", "group": "intelsat", "lat": -2.0889425927266, "lon": -50.68515220635308, "alt_km": 35780.10262236967, "timestamp": "2025-12-04T21:36:15.542004+00:00", "meta": {"OBJECT_NAME": "GALAXY 28 (G-28)", "OBJECT_ID": "2005-022A", "EPOCH": "2025-12-04T13:18:14.538816", "MEAN_MOTION": 1.00272119, "ECCENTRICITY": 0.00026362, "INCLINATION": 2.7977, "RA_OF_ASC_NODE": 81.3766, "ARG_OF_PERICENTER": 171.5466, "MEAN_ANOMALY": 291.5686, "EPHEMERIS_TYPE": 0, "CLASSIFICATION_TYPE": "U", "NORAD_CAT_ID": 28702, "ELEMENT_SET_NO": 999, "REV_AT_EPOCH": 5002, "BSTAR": 0, "MEAN_MOTION_DOT": -1.74e-06, "MEAN_MOTION_DDOT": 0}, "tle": {"line1": "1 28702U 05022A   25338.55433494 -.00000174  00000+0  00000+0 0  9997", "line2": "2 28702   2.7977  81.3766 0002636 171.5466 291.5686  1.00272119 50028"}}, "geometry": {"type": "Point", "coordinates": [-50.68515220635308, -2.0889425927266]}}, {"type": "Feature", "properties": {"norad_id": 29236, "name": "GALAXY 16 (G-16)", "group": "intelsat", "lat": 0.0016096182258088707, "lon": -60.97385776614208, "alt_km": 35777.08175721692, "timestamp": "2025-12-04T21:36:15.542016+00:00", "meta": {"OBJECT_NAME": "GALAXY 16 (G-16)", "OBJECT_ID": "2006-023A", "EPOCH": "2025-12-04T09:49:53.556096", "MEAN_MOTION": 1.00271171, "ECCENTRICITY": 0.00029533, "INCLINATION": 0.0259, "RA_OF_ASC_NODE": 211.8761, "ARG_OF_PERICENTER": 44.3815, "MEAN_ANOMALY": 225.6909, "EPHEMERIS_TYPE": 0, "CLASSIFICATION_TYPE": "U", "NORAD_CAT_ID": 29236, "ELEMENT_SET_NO": 999, "REV_AT_EPOCH": 7102, "BSTAR": 0, "MEAN_MOTION_DOT": -1.12e-06, "MEAN_MOTION_DDOT": 0}, "tle": {"line1": "1 29236U 06023A   25338.40964764 -.00000112  00000+0  00000+0 0  9997", "line2": "2 29236   0.0259 211.8761 0002953  44.3815 225.6909  1.00271171 71023"}}, "geometry": {"type": "Point", "coordinates": [-60.97385776614208, 0.0016096182258088707]}}, {"type": "Feature", "properties": {"norad_id": 29494, "name": "DIRECTV 9S", "group": "intelsat", "lat": -1.0746923794861245, "lon": -63.18096442688878, "alt_km": 35776.580969152164, "timestamp": "2025-12-04T21:36:15.542027+00:00", "meta": {"OBJECT_NAME": "DIRECTV 9S", "OBJECT_ID": "2006-043A", "EPOCH": "2025-12-04T13:14:44.872800", "MEAN_MOTION": 1.00270512, "ECCENTRICITY": 0.00032371, "INCLINATION": 1.9176, "RA_OF_ASC_NODE": 83.2962, "ARG_OF_PERICENTER": 170.3541, "MEAN_ANOMALY": 277.4541, "EPHEMERIS_TYPE": 0, "CLASSIFICATION_TYPE": "U", "NORAD_CAT_ID": 29494, "ELEMENT_SET_NO": 999, "REV_AT_EPOCH": 4943, "BSTAR": 0, "MEAN_MOTION_DOT": -9.9e-07, "MEAN_MOTION_DDOT": 0}, "tle": {"line1": "1 29494U 06043A   25338.55190825 -.00000099  00000+0  00000+0 0  9994", "line2": "2 29494   1.9176  83.2962 0003237 170.3541 277.4541  1.00270512 49438"}}, "geometry": {"type": "Point", "coordinates": [-63.18096442688878, -1.0746923794861245]}}, {"type": "Feature", "properties": {"norad_id": 31307, "name": "GALAXY 17 (G-17)", "group": "intelsat", "lat": -1.926607549946402, "lon": -46.94286525892127, "alt_km": 35779.043164619434, "timestamp": "2025-12-04T21:36:15.542039+00:00", "meta": {"OBJECT_NAME": "GALAXY 17 (G-17)", "OBJECT_ID": "2007-016B", "EPOCH": "2025-12-04T13:19:21.930816", "MEAN_MOTION": 1.00270292, "ECCENTRICITY": 0.00061167, "INCLINATION": 2.478, "RA_OF_ASC_NODE": 82.3782, "ARG_OF_PERICENTER": 157.9017, "MEAN_ANOMALY": 308.189, "EPHEMERIS_TYPE": 0, "CLASSIFICATION_TYPE": "U", "NORAD_CAT_ID": 31307, "ELEMENT_SET_NO": 999, "REV_AT_EPOCH": 6785, "BSTAR": 0, "MEAN_MOTION_DOT": -1.93e-06, "MEAN_MOTION_DDOT": 0}, "tle": {"line1": "1 31307U 07016B   25338.55511494 -.00000193  00000+0  00000+0 0  9995", "line2": "2 31307   2.4780  82.3782 0006116 157.9017 308.1890  1.00270292 67859"}}, "geometry": {"type": "Point", "coordinates": [-46.94286525892127, -1.926607549946402]}}, {"type": "Feature", "properties": {"norad_id": 31862, "name": "DIRECTV 10", "group": "intelsat", "lat": 0.0015603196576412315, "lon": -64.77468701571547, "alt_km": 35785.23346177836, "timestamp": "2025-12-04T21:36:15.542051+00:00", "meta": {"OBJECT_NAME": "DIRECTV 10", "OBJECT_ID": "2007-032A", "EPOCH": "2025-12-04T09:48:46.163232", "MEAN_MOTION": 1.00273306, "ECCENTRICITY": 3.683e-05, "INCLINATION": 0.0091, "RA_OF_ASC_NODE": 87.0952, "ARG_OF_PERICENTER": 133.8399, "MEAN_ANOMALY": 256.9462, "EPHEMERIS_TYPE": 0, "CLASSIFICATION_TYPE": "U", "NORAD_CAT_ID": 31862, "ELEMENT_SET_NO": 999, "REV_AT_EPOCH": 4364, "BSTAR": 0, "MEAN_MOTION_DOT": -8.8e-07, "MEAN_MOTION_DDOT": 0}, "tle": {"line1": "1 31862U 07032A   25338.40886763 -.00000088  00000+0  00000+0 0  9990", "line2": "2 31862   0.0091  87.0952 0000368 133.8399 256.9462  1.00273306 43649"}}, "geometry": {"type": "Point", "coordinates": [-64.77468701571547, 0.0015603196576412315]}}, {"type": "Feature", "properties": {"norad_id": 32253, "name": "INTELSAT 11 (IS-11)", "group": "intelsat", "lat": -1.866276265833266, "lon": -61.72051683216647, "alt_km": 36110.54130979266, "timestamp": "2025-12-04T21:36:15.542062+00:00", "meta": {"OBJECT_NAME": "INTELSAT 11 (IS-11)", "OBJECT_ID": "2007-044B", "EPOCH": "2025-12-04T13:15:29.801664", "MEAN_MOTION": 0.99047143, "ECCENTRICITY": 0.00092945, "INCLINATION": 3.0574, "RA_OF_ASC_NODE": 81.0671, "ARG_OF_PERICENTER": 161.8583, "MEAN_ANOMALY": 291.3189, "EPHEMERIS_TYPE": 0, "CLASSIFICATION_TYPE": "U", "NORAD_CAT_ID": 32253, "ELEMENT_SET_NO": 999, "REV_AT_EPOCH": 6652, "BSTAR": 0, "MEAN_MOTION_DOT": 2.5e-07, "MEAN_MOTION_DDOT": 0}, "tle": {"line1": "1 32253U 07044B   25338.55242826  .00000025  00000+0  00000+0 0  9990", "line2": "2 32253   3.0574  81.0671 0009294 161.8583 291.3189  0.99047143 66524"}}, "geometry": {"type": "Point", "coordinates": [-61.72051683216647, -1.866276265833266]}}, {"type": "Feature", "properties": {"norad_id": 32388, "name": "HORIZONS-2", "group": "intelsat", "lat": -1.8433200742906424, "lon": -35.73192213155122, "alt_km": 35775.50196162301, "timestamp": "2025-12-04T21:36:15.542074+00:00", "meta": {"OBJECT_NAME": "HORIZONS-2", "OBJECT_ID": "2007-063B", "EPOCH": "2025-12-04T13:22:29.131968", "MEAN_MOTION": 1.00271685, "ECCENTRICITY": 0.00050306, "INCLINATION": 2.0989, "RA_OF_ASC_NODE": 83.0494, "ARG_OF_PERICENTER": 182.0483, "MEAN_ANOMALY": 295.3707, "EPHEMERIS_TYPE": 0, "CLASSIFICATION_TYPE": "U", "NORAD_CAT_ID": 32388, "ELEMENT_SET_NO": 999, "REV_AT_EPOCH": 6586, "BSTAR": 0, "MEAN_MOTION_DOT": -2.4e-06, "MEAN_MOTION_DDOT": 0}, "tle": {"line1": "1 32388U 07063B   25338.55728162 -.00000240  00000+0  00000+0 0  9992", "line2": "2 32388   2.0989  83.0494 0005030 182.0483 295.3707  1.00271685 65864"}}, "geometry": {"type": "Point", "coordinates": [-35.73192213155122, -1.8433200742906424]}}, {"type": "Feature", "properties": {"norad_id": 32729, "name": "DIRECTV 11", "group": "intelsat", "lat": 0.0014875006204542272, "lon": -61.179591758240875, "alt_km": 35785.32167911066, "timestamp": "2025-12-04T21:36:15.542086+00:00", "meta": {"OBJECT_NAME": "DIRECTV 11", "OBJECT_ID": "2008-013A", "EPOCH": "2025-12-04T09:49:46.066944", "MEAN_MOTION": 1.00271822, "ECCENTRICITY": 2.818e-05, "INCLINATION": 0.0106, "RA_OF_ASC_NODE": 92.3257, "ARG_OF_PERICENTER": 156.2768, "MEAN_ANOMALY": 233.1284, "EPHEMERIS_TYPE": 0, "CLASSIFICATION_TYPE": "U", "NORAD_CAT_ID": 32729, "ELEMENT_SET_NO": 999, "REV_AT_EPOCH": 4364, "BSTAR": 0, "MEAN_MOTION_DOT": -1.11e-06, "MEAN_MOTION_DDOT": 0}, "tle": {"line1": "1 32729U 08013A   25338.40956096 -.00000111  00000+0  00000+0 0  9997", "line2": "2 32729   0.0106  92.3257 0000281 156.2768 233.1284  1.00271822 43649"}}, "geometry": {"type": "Point", "coordinates": [-61.179591758240875, 0.0014875006204542272]}}, {"type": "Feature", "properties": {"norad_id": 32951, "name": "GALAXY 18 (G-18)", "group": "intelsat", "lat": -0.03589163229979873, "lon": -84.97864001922532, "alt_km": 35774.07242366636, "timestamp": "2025-12-04T21:36:15.542098+00:00", "meta": {"OBJECT_NAME": "GALAXY 18 (G-18)", "OBJECT_ID": "2008-024A", "EPOCH": "2025-12-04T14:02:38.764032", "MEAN_MOTION": 1.00268646, "ECCENTRICITY": 0.00032503, "INCLINATION": 0.0161, "RA_OF_ASC_NODE": 1.1901, "ARG_OF_PERICENTER": 253.0124, "MEAN_ANOMALY": 267.1148, "EPHEMERIS_TYPE": 0, "CLASSIFICATION_TYPE": "U", "NORAD_CAT_ID": 32951, "ELEMENT_SET_NO": 999, "REV_AT_EPOCH": 4390, "BSTAR": 0, "MEAN_MOTION_DOT": 4e-07, "MEAN_MOTION_DDOT": 0}, "tle": {"line1": "1 32951U 08024A   25338.58517088  .00000040  00000+0  00000+0 0  9999", "line2": "2 32951   0.0161   1.1901 0003250 253.0124 267.1148  1.00268646 43907"}}, "geometry": {"type": "Point", "coordinates": [-84.97864001922532, -0.03589163229979873]}}]}